OBJECT_NAME,OBJECT_ID,EPOCH,MEAN_MOTION,ECCENTRICITY,INCLINATION,RA_OF_ASC_NODE,ARG_OF_PERICENTER,MEAN_ANOMALY,EPHEMERIS_TYPE,CLASSIFICATION_TYPE,NORAD_CAT_ID,ELEMENT_SET_NO,REV_AT_EPOCH,BSTAR,MEAN_MOTION_DOT,MEAN_MOTION_DDOT
ONEWEB-0426,2021-132AF,2026-06-06T12:55:38.119296,13.18687471,.0002483,87.9161,337.5647,82.7580,277.3835,0,U,50498,999,22018,-.89203E-4,-.22E-6,0
ONEWEB-0427,2021-132AG,2026-06-06T17:31:11.911008,13.18685229,.000204,87.9167,337.5153,90.7058,269.4307,0,U,50499,999,22023,-.35601E-3,-.127E-5,0
ONEWEB-0429,2021-132AH,2026-06-06T19:01:02.445024,13.18684791,.0001719,87.9159,337.5284,90.4963,269.6366,0,U,50500,999,22021,-.48748E-4,-.6E-7,0
ONEWEB-0430,2021-132AJ,2026-06-06T18:44:02.573376,13.18685847,.0001703,87.9159,337.5291,97.7424,262.3901,0,U,50501,999,22025,.18168E-3,.85E-6,0
ONEWEB-0432,2021-132AK,2026-06-06T17:42:16.467840,13.18570459,.0002101,87.9188,337.5071,116.0556,244.0792,0,U,50502,999,22020,-.35232E-1,-.13833E-3,0
ONEWEB-0440,2021-132AL,2026-06-06T19:13:10.358112,13.18684974,.0001713,87.9166,337.5201,80.6529,279.4797,0,U,50503,999,22020,.53021E-4,.34E-6,0
ONEWEB-0450,2021-132AM,2026-06-06T19:03:40.436064,13.18686252,.0001644,87.9156,337.5281,93.6056,266.5264,0,U,50504,999,22023,-.12669E-3,-.37E-6,0
TIANHUI 4A,2021-134A,2026-06-06T20:57:07.949952,15.46359657,.001092,88.9715,324.1941,103.4375,256.8103,0,U,50572,999,24827,.19178E-3,.9517E-4,0
TIANHUI 4B,2021-134B,2026-06-06T20:57:37.421856,15.46357544,.0010483,88.9712,324.1753,107.2664,252.9744,0,U,50573,999,24824,.19727E-3,.9786E-4,0
TJS-9,2021-135A,2026-06-06T20:58:05.724768,1.00272805,.000488,0.0616,256.3668,151.5325,299.1231,0,U,50574,999,1632,0,-.285E-5,0
STARLINK-3323,2022-001B,2026-06-06T04:27:21.008448,15.08836001,.00012245,53.1715,121.8153,76.0542,284.0585,0,U,50804,999,24390,.58368669E-4,.641E-5,0
STARLINK-3333,2022-001C,2026-06-06T04:22:02.932032,15.08836229,.000119,53.1735,121.8322,72.0672,288.0449,0,U,50805,999,24390,.38282E-4,.321E-5,0
STARLINK-3335,2022-001D,2026-06-06T04:16:44.484960,15.08845768,.0001644,53.1798,121.8402,92.4895,267.6284,0,U,50806,999,24390,.86344E-4,.1087E-4,0
STARLINK-3355,2022-001F,2026-06-06T15:13:51.517056,15.08832626,.0001495,53.1774,119.7944,96.6718,263.4444,0,U,50808,999,24397,-.90036E-5,-.431E-5,0
STARLINK-3232,2022-001G,2026-06-06T04:11:26.958048,15.08841889,.0001274,53.1730,121.8648,102.1452,257.9683,0,U,50809,999,24390,-.20693E-4,-.617E-5,0
STARLINK-3338,2022-001K,2026-06-06T14:20:53.349216,15.08813115,.0001262,53.1722,120.0684,89.3079,270.8058,0,U,50812,999,24396,.30622E-3,.4585E-4,0
STARLINK-3349,2022-001L,2026-06-05T21:43:36.154848,15.44733715,.0002269,53.2026,67.7410,105.3145,254.8114,0,U,50813,999,24465,.1741E-2,.83108E-3,0
STARLINK-3324,2022-001M,2026-06-06T04:52:32.761344,15.08839572,.00012878,53.1782,131.7361,108.0988,252.0144,0,U,50814,999,24377,.80499155E-4,.993E-5,0
STARLINK-3234,2022-001N,2026-06-06T14:40:44.730048,15.08817546,.0002039,53.1746,129.9017,87.6982,272.4243,0,U,50815,999,24383,-.46286E-4,-.1024E-4,0
STARLINK-3342,2022-001P,2026-06-06T04:33:45.467712,15.17131819,.00039453,53.2132,126.2811,73.8753,286.2677,0,U,50816,999,24384,.17669263E-2,.35334E-3,0
STARLINK-3341,2022-001Q,2026-06-06T05:03:07.066080,15.08836332,.00012172,53.1750,131.7033,59.9551,300.1562,0,U,50817,999,24377,.41835808E-4,.378E-5,0
STARLINK-3336,2022-001R,2026-06-06T15:44:20.351040,15.08799873,.0001485,53.1720,129.7027,64.6971,295.4175,0,U,50818,999,24383,.53085E-3,.8162E-4,0
STARLINK-3327,2022-001S,2026-06-06T04:47:13.064928,15.08838463,.00013615,53.1751,131.7519,95.3410,264.7737,0,U,50819,999,24377,.29789104E-4,.186E-5,0
STARLINK-3339,2022-001T,2026-06-06T15:28:25.665600,15.08833951,.0001189,53.1764,129.7429,108.4676,251.6445,0,U,50820,999,24383,.31541E-4,.214E-5,0
STARLINK-3346,2022-001U,2026-06-06T14:51:18.880128,15.08833450,.0001226,53.1736,129.7530,104.1537,255.9591,0,U,50821,999,24383,-.23868E-4,-.668E-5,0
STARLINK-3343,2022-001V,2026-06-06T15:17:50.020800,15.08826838,.0001173,53.1729,129.7850,90.9952,269.1174,0,U,50822,999,24383,.50553E-4,.516E-5,0
STARLINK-3334,2022-001W,2026-06-06T04:57:48.142080,15.08850321,.00013767,53.1742,131.7209,82.2904,277.8244,0,U,50823,999,24377,.13005983E-3,.1783E-4,0
STARLINK-3332,2022-001Y,2026-06-06T15:23:09.241152,15.08790671,.0001755,53.1748,129.7676,74.7965,285.3220,0,U,50825,999,24383,.67352E-3,.10433E-3,0
STARLINK-3329,2022-001AA,2026-06-06T15:39:01.136736,15.08840306,.0001087,53.1726,129.7174,128.3345,231.7744,0,U,50827,999,24383,.11906E-3,.1608E-4,0
STARLINK-3290,2022-001AB,2026-06-06T15:19:13.219680,15.08803933,.0000913,53.1719,129.6728,119.8172,240.2911,0,U,50828,999,24368,.55528E-3,.8552E-4,0
STARLINK-3294,2022-001AC,2026-06-06T15:49:37.940160,15.08807280,.0001201,53.1718,129.6856,100.3146,259.7981,0,U,50829,999,24383,.42702E-3,.6509E-4,0
STARLINK-3278,2022-001AD,2026-06-06T16:14:47.762880,15.08834464,.0001297,53.1793,139.6054,102.3279,257.7858,0,U,50830,999,24370,.30773E-4,.202E-5,0
STARLINK-3299,2022-001AE,2026-06-06T05:24:19.624896,15.08853281,.00017717,53.1770,131.7092,101.6099,258.5091,0,U,50831,999,24377,.17798244E-3,.2547E-4,0
STARLINK-3328,2022-001AF,2026-06-06T05:08:29.001120,15.08836624,.0001716,53.1826,141.7349,112.2607,247.8567,0,U,50832,999,24363,.38746679E-4,.329E-5,0
STARLINK-3331,2022-001AH,2026-06-06T15:53:37.288896,15.08794313,.0001323,53.1720,139.6781,96.4354,263.6788,0,U,50834,999,24369,.54217E-3,.8341E-4,0
STARLINK-3310,2022-001AJ,2026-06-06T05:58:37.617600,15.10216973,.00017271,53.2161,141.4737,62.3885,297.7283,0,U,50835,999,24363,.12560405E-2,.20529E-3,0
STARLINK-3330,2022-001AK,2026-06-06T05:56:04.695648,15.08887885,.00018343,53.1760,141.3191,105.5433,254.5761,0,U,50836,999,24353,.11183403E-3,.1494E-4,0
STARLINK-3318,2022-001AL,2026-06-06T15:01:56.227872,15.08832064,.0001419,53.1746,129.8366,104.6771,255.4378,0,U,50837,999,24383,-.29367E-4,-.755E-5,0
STARLINK-3320,2022-001AN,2026-06-06T15:27:06.015168,15.08839763,.000121,53.1727,139.7586,103.8295,256.2832,0,U,50839,999,24368,-.76096E-4,-.1499E-4,0
STARLINK-3295,2022-001AP,2026-06-06T15:21:49.366944,15.08820417,.0001869,53.1748,139.7740,92.4040,267.7165,0,U,50840,999,24368,-.99427E-4,-.1869E-4,0
STARLINK-3300,2022-001AQ,2026-06-06T15:37:42.624192,15.08825933,.0001302,53.1744,139.7250,92.9485,267.1655,0,U,50841,999,24369,-.35997E-4,-.861E-5,0
STARLINK-3302,2022-001AR,2026-06-06T05:44:10.042368,15.08845605,.00013165,53.1748,141.5779,112.4703,247.6428,0,U,50842,999,24362,.17835903E-3,.2552E-4,0
STARLINK-3326,2022-001AT,2026-06-06T05:28:18.858720,15.08823173,.00011669,53.1759,141.6256,86.9132,273.1993,0,U,50844,999,24363,.82927711E-4,.1032E-4,0
STARLINK-3230,2022-001AU,2026-06-06T16:04:11.933184,15.08836760,.0001599,53.1804,139.6382,92.7587,267.3588,0,U,50845,999,24370,-.14055E-5,-.31E-5,0
STARLINK-3308,2022-001AV,2026-06-06T05:38:54.323808,15.08837792,.00012752,53.1734,141.7093,103.0442,257.0692,0,U,50846,999,24363,.14831033E-4,-.52E-6,0
STARLINK-3315,2022-001AX,2026-06-06T16:25:23.555424,15.08851980,.0001141,53.1769,139.5727,80.2502,279.8618,0,U,50848,999,24370,.1274E-3,.1741E-4,0
STARLINK-3311,2022-001AY,2026-06-06T05:33:36.990432,15.08838254,.00010697,53.1728,141.6086,80.8340,279.2773,0,U,50849,999,24363,.78254629E-4,.958E-5,0
STARLINK-3312,2022-001AZ,2026-06-06T15:11:12.479712,15.08833012,.0001146,53.1724,99.8063,79.5355,280.5766,0,U,50850,999,24479,.35194E-4,.272E-5,0
STARLINK-3314,2022-001BA,2026-06-06T16:09:31.500864,15.08801595,.0001044,53.1812,139.5508,101.9811,258.1298,0,U,50851,999,24370,-.47338E-3,-.7806E-4,0
ION SCV-004,2022-002K,2026-06-06T18:33:22.271616,15.30349221,.0008292,97.2833,215.6280,42.1696,318.0181,0,U,50993,999,24370,.22891E-3,.6651E-4,0
HYPSO-1,2022-002BX,2026-06-06T19:24:42.113664,15.69857263,.0001323,97.2826,238.3445,291.9574,68.1547,0,U,51053,999,24528,.62195E-3,.74599E-3,0
ETV-A1,2022-002CE,2026-06-06T21:08:43.139904,15.40467166,.0005661,97.2877,224.2175,39.1322,321.0333,0,U,51060,999,24425,.3232E-3,.13024E-3,0
BRO-5,2022-002CF,2026-06-06T20:05:59.083296,15.46796323,.0004594,97.2995,231.4193,17.4647,342.6760,0,U,51061,999,24465,.67383E-3,.338E-3,0
SHIYAN-13 (SY-13),2022-004A,2026-06-06T20:14:30.579072,14.20329859,.0603677,98.4562,177.8937,222.2247,133.0926,0,U,51102,999,22582,.15661E-3,.2266E-4,0
STARLINK-3366,2022-005A,2026-06-06T13:36:32.597280,15.08981443,.0001123,53.1922,250.1031,70.1548,289.9565,0,U,51104,999,24229,.11253E-3,.151E-4,0
STARLINK-3350,2022-005B,2026-06-06T13:00:02.927520,15.08832837,.00010588,53.1725,250.2136,87.7144,272.3969,0,U,51105,999,24229,.60684573E-4,.678E-5,0
STARLINK-3176,2022-005C,2026-06-06T12:28:13.802880,15.08859939,.00010061,53.1844,250.3184,83.2532,276.8574,0,U,51106,999,24228,.22578975E-3,.3309E-4,0
STARLINK-3362,2022-005E,2026-06-06T11:19:21.503424,15.08834155,.00010338,53.1711,250.5260,110.6716,249.4387,0,U,51108,999,24228,.46274398E-4,.449E-5,0
STARLINK-3358,2022-005F,2026-06-06T13:21:14.378688,15.08829884,.0001492,53.1728,250.1005,87.8151,272.3011,0,U,51109,999,24206,.77249E-4,.941E-5,0
STARLINK-3344,2022-005G,2026-06-06T12:38:50.295264,15.08842060,.00011564,53.1795,250.2640,79.3036,280.8086,0,U,51110,999,24229,.56345581E-4,.609E-5,0
STARLINK-3173,2022-005H,2026-06-06T13:42:26.604000,15.08833030,.0000988,53.1723,250.0814,92.7196,267.3909,0,U,51111,999,24229,.75797E-4,.918E-5,0
STARLINK-3374,2022-005J,2026-06-06T12:34:54.666048,15.08850369,.00010559,53.1772,250.2625,95.9586,264.1526,0,U,51112,999,24229,-.12957364E-3,-.235E-4,0
STARLINK-3372,2022-005K,2026-06-06T12:22:57.196992,15.08840611,.00011704,53.1774,250.3344,64.1167,295.9945,0,U,51113,999,24228,.47242215E-4,.464E-5,0
STARLINK-3375,2022-005L,2026-06-06T12:49:26.746176,15.08852726,.00009748,53.1719,250.2481,52.0079,308.1000,0,U,51114,999,24229,.63618146E-4,.725E-5,0
STARLINK-3397,2022-005M,2026-06-06T13:47:44.041056,15.08819105,.0001117,53.1724,250.0631,103.8259,256.2857,0,U,51115,999,24229,.1875E-3,.2696E-4,0
